{
  "type": "FeatureCollection",
  "features": [
    {
      "type": "Feature",
      "properties": {
        "norad_id": 2807,
        "name": "OPS 7218 (TRANSIT 16)",
        "group": "nnss",
        "lat": -57.66184134441735,
        "lon": 174.5755447032409,
        "alt_km": 1084.9436051813454,
        "timestamp": "2025-12-11T10:53:16.154979+00:00",
        "meta_object_name": "OPS 7218 (TRANSIT 16)",
        "meta_object_id": "1967-048A",
        "meta_epoch": "2025-12-11T01:05:34.707840",
        "meta_mean_motion": 13.50721723,
        "meta_eccentricity": 0.0021887,
        "meta_inclination": 89.6732,
        "meta_ra_of_asc_node": 354.0725,
        "meta_arg_of_pericenter": 118.5998,
        "meta_mean_anomaly": 295.4439,
        "meta_ephemeris_type": 0,
        "meta_classification_type": "U",
        "meta_norad_cat_id": 2807,
        "meta_element_set_no": 999,
        "meta_rev_at_epoch": 88253,
        "meta_bstar": 0.00019465,
        "meta_mean_motion_dot": 1.36e-06,
        "meta_mean_motion_ddot": 0,
        "tle_line1": "1 02807U 67048A   25345.04554060  .00000136  00000+0  19465-3 0  9992",
        "tle_line2": "2 02807  89.6732 354.0725 0021887 118.5998 295.4439 13.50721723882530"
      },
      "geometry": {
        "type": "Point",
        "coordinates": [
          174.5755447032409,
          -57.66184134441735
        ]
      }
    },
    {
      "type": "Feature",
      "properties": {
        "norad_id": 2965,
        "name": "OPS 4947 (TRANSIT 17)",
        "group": "nnss",
        "lat": -70.37974506514902,
        "lon": 22.427284303926854,
        "alt_km": 1045.4118593353987,
        "timestamp": "2025-12-11T10:53:16.155005+00:00",
        "meta_object_name": "OPS 4947 (TRANSIT 17)",
        "meta_object_id": "1967-092A",
        "meta_epoch": "2025-12-11T04:28:28.163712",
        "meta_mean_motion": 13.53452884,
        "meta_eccentricity": 0.0046094,
        "meta_inclination": 89.2497,
        "meta_ra_of_asc_node": 24.5542,
        "meta_arg_of_pericenter": 239.1652,
        "meta_mean_anomaly": 188.8277,
        "meta_ephemeris_type": 0,
        "meta_classification_type": "U",
        "meta_norad_cat_id": 2965,
        "meta_element_set_no": 999,
        "meta_rev_at_epoch": 87076,
        "meta_bstar": 0.00023165,
        "meta_mean_motion_dot": 1.68e-06,
        "meta_mean_motion_ddot": 0,
        "tle_line1": "1 02965U 67092A   25345.18643708  .00000168  00000+0  23165-3 0  9996",
        "tle_line2": "2 02965  89.2497  24.5542 0046094 239.1652 188.8277 13.53452884870768"
      },
      "geometry": {
        "type": "Point",
        "coordinates": [
          22.427284303926854,
          -70.37974506514902
        ]
      }
    },
    {
      "type": "Feature",
      "properties": {
        "norad_id": 3133,
        "name": "OPS 7034 (TRANSIT 18)",
        "group": "nnss",
        "lat": 86.30439719434375,
        "lon": -86.79556001599177,
        "alt_km": 1055.3438387059641,
        "timestamp": "2025-12-11T10:53:16.155019+00:00",
        "meta_object_name": "OPS 7034 (TRANSIT 18)",
        "meta_object_id": "1968-012A",
        "meta_epoch": "2025-12-11T05:41:48.778368",
        "meta_mean_motion": 13.51565062,
        "meta_eccentricity": 0.0073703,
        "meta_inclination": 90.0278,
        "meta_ra_of_asc_node": 273.6345,
        "meta_arg_of_pericenter": 173.482,
        "meta_mean_anomaly": 301.9153,
        "meta_ephemeris_type": 0,
        "meta_classification_type": "U",
        "meta_norad_cat_id": 3133,
        "meta_element_set_no": 999,
        "meta_rev_at_epoch": 56898,
        "meta_bstar": 0.00024107,
        "meta_mean_motion_dot": 1.69e-06,
        "meta_mean_motion_ddot": 0,
        "tle_line1": "1 03133U 68012A   25345.23737012  .00000169  00000+0  24107-3 0  9993",
        "tle_line2": "2 03133  90.0278 273.6345 0073703 173.4820 301.9153 13.51565062568985"
      },
      "geometry": {
        "type": "Point",
        "coordinates": [
          -86.79556001599177,
          86.30439719434375
        ]
      }
    },
    {
      "type": "Feature",
      "properties": {
        "norad_id": 4507,
        "name": "NNSS 19 (TRANSIT 19)",
        "group": "nnss",
        "lat": 61.35808992064719,
        "lon": -125.47714566600175,
        "alt_km": 1131.583518980734,
        "timestamp": "2025-12-11T10:53:16.155032+00:00",
        "meta_object_name": "NNSS 19 (TRANSIT 19)",
        "meta_object_id": "1970-067A",
        "meta_epoch": "2025-12-11T05:15:12.507264",
        "meta_mean_motion": 13.51314509,
        "meta_eccentricity": 0.0170634,
        "meta_inclination": 90.0055,
        "meta_ra_of_asc_node": 234.5328,
        "meta_arg_of_pericenter": 297.8265,
        "meta_mean_anomaly": 60.5684,
        "meta_ephemeris_type": 0,
        "meta_classification_type": "U",
        "meta_norad_cat_id": 4507,
        "meta_element_set_no": 999,
        "meta_rev_at_epoch": 72201,
        "meta_bstar": 0.00023118,
        "meta_mean_motion_dot": 1.72e-06,
        "meta_mean_motion_ddot": 0,
        "tle_line1": "1 04507U 70067A   25345.21889476  .00000172  00000+0  23118-3 0  9997",
        "tle_line2": "2 04507  90.0055 234.5328 0170634 297.8265  60.5684 13.51314509722017"
      },
      "geometry": {
        "type": "Point",
        "coordinates": [
          -125.47714566600175,
          61.35808992064719
        ]
      }
    },
    {
      "type": "Feature",
      "properties": {
        "norad_id": 6909,
        "name": "NNSS 20 (TRANSIT 20)",
        "group": "nnss",
        "lat": 38.098126462485524,
        "lon": -104.81386537171909,
        "alt_km": 907.6295634370299,
        "timestamp": "2025-12-11T10:53:16.155044+00:00",
        "meta_object_name": "NNSS 20 (TRANSIT 20)",
        "meta_object_id": "1973-081A",
        "meta_epoch": "2025-12-11T03:42:03.839040",
        "meta_mean_motion": 13.71432978,
        "meta_eccentricity": 0.0156612,
        "meta_inclination": 89.8563,
        "meta_ra_of_asc_node": 255.0779,
        "meta_arg_of_pericenter": 83.0117,
        "meta_mean_anomaly": 278.883,
        "meta_ephemeris_type": 0,
        "meta_classification_type": "U",
        "meta_norad_cat_id": 6909,
        "meta_element_set_no": 999,
        "meta_rev_at_epoch": 80339,
        "meta_bstar": 0.00031898,
        "meta_mean_motion_dot": 3.25e-06,
        "meta_mean_motion_ddot": 0,
        "tle_line1": "1 06909U 73081A   25345.15421110  .00000325  00000+0  31898-3 0  9998",
        "tle_line2": "2 06909  89.8563 255.0779 0156612  83.0117 278.8830 13.71432978803395"
      },
      "geometry": {
        "type": "Point",
        "coordinates": [
          -104.81386537171909,
          38.098126462485524
        ]
      }
    },
    {
      "type": "Feature",
      "properties": {
        "norad_id": 10457,
        "name": "TRANSAT",
        "group": "nnss",
        "lat": 75.44109172441951,
        "lon": 79.99848583198617,
        "alt_km": 1077.8299411294865,
        "timestamp": "2025-12-11T10:53:16.155056+00:00",
        "meta_object_name": "TRANSAT",
        "meta_object_id": "1977-106A",
        "meta_epoch": "2025-12-11T05:27:25.562016",
        "meta_mean_motion": 13.48943314,
        "meta_eccentricity": 0.0025252,
        "meta_inclination": 89.6481,
        "meta_ra_of_asc_node": 78.6506,
        "meta_arg_of_pericenter": 193.8895,
        "meta_mean_anomaly": 223.6308,
        "meta_ephemeris_type": 0,
        "meta_classification_type": "U",
        "meta_norad_cat_id": 10457,
        "meta_element_set_no": 999,
        "meta_rev_at_epoch": 36723,
        "meta_bstar": 0.00019008,
        "meta_mean_motion_dot": 1.29e-06,
        "meta_mean_motion_ddot": 0,
        "tle_line1": "1 10457U 77106A   25345.22737919  .00000129  00000+0  19008-3 0  9999",
        "tle_line2": "2 10457  89.6481  78.6506 0025252 193.8895 223.6308 13.48943314367231"
      },
      "geometry": {
        "type": "Point",
        "coordinates": [
          79.99848583198617,
          75.44109172441951
        ]
      }
    },
    {
      "type": "Feature",
      "properties": {
        "norad_id": 12458,
        "name": "NOVA 1",
        "group": "nnss",
        "lat": 84.0981457827949,
        "lon": -90.02554405577018,
        "alt_km": 1153.0477784556588,
        "timestamp": "2025-12-11T10:53:16.155068+00:00",
        "meta_object_name": "NOVA 1",
        "meta_object_id": "1981-044A",
        "meta_epoch": "2025-12-11T05:16:29.304768",
        "meta_mean_motion": 13.23278327,
        "meta_eccentricity": 0.0015884,
        "meta_inclination": 89.8524,
        "meta_ra_of_asc_node": 91.4066,
        "meta_arg_of_pericenter": 107.7318,
        "meta_mean_anomaly": 314.7012,
        "meta_ephemeris_type": 0,
        "meta_classification_type": "U",
        "meta_norad_cat_id": 12458,
        "meta_element_set_no": 999,
        "meta_rev_at_epoch": 15166,
        "meta_bstar": 0.00016743,
        "meta_mean_motion_dot": 8e-07,
        "meta_mean_motion_ddot": 0,
        "tle_line1": "1 12458U 81044A   25345.21978362  .00000080  00000+0  16743-3 0  9995",
        "tle_line2": "2 12458  89.8524  91.4066 0015884 107.7318 314.7012 13.23278327151662"
      },
      "geometry": {
        "type": "Point",
        "coordinates": [
          -90.02554405577018,
          84.0981457827949
        ]
      }
    }
  ]
}